start=new Date('2022-10-21T00:00:00.000Z').valueOf();
sats=[{"TLE_LINE1":"1 48297U 21036X   22293.83576144 -.00001922  00000-0 -11012-3 0  9992","OBJECT_TYPE":"PAYLOAD","FILE":"3626002","SITE":"AFETR","GP_ID":"215694316","CENTER_NAME":"EARTH","PERIAPSIS":"545.903","APOAPSIS":"548.461","ELEMENT_SET_NO":"999","MEAN_MOTION":"15.06410367","INCLINATION":"53.0553","MEAN_MOTION_DDOT":"0.0000000000000","MEAN_MOTION_DOT":"-0.00001922","COUNTRY_CODE":"US","TIME_SYSTEM":"UTC","LAUNCH_DATE":"2021-04-29","MEAN_ELEMENT_THEORY":"SGP4","PERIOD":"95.591","DECAY_DATE":null,"OBJECT_NAME":"STARLINK-2544","EPHEMERIS_TYPE":"0","BSTAR":"-0.00011012000000","ECCENTRICITY":"0.00018470","REV_AT_EPOCH":"8262","OBJECT_ID":"2021-036X","TLE_LINE2":"2 48297  53.0553 229.5814 0001847  56.1162 304.0002 15.06410367 82625","NORAD_CAT_ID":"48297","MEAN_ANOMALY":"304.0002","RA_OF_ASC_NODE":"229.5814","CLASSIFICATION_TYPE":"U","RCS_SIZE":"LARGE","REF_FRAME":"TEME","ARG_OF_PERICENTER":"56.1162","EPOCH":"2022-10-20T20:03:29.788416","SEMIMAJOR_AXIS":"6925.317"},{"ELEMENT_SET_NO":"999","MEAN_MOTION":"15.06413269","INCLINATION":"53.0546","MEAN_MOTION_DDOT":"0.0000000000000","MEAN_MOTION_DOT":"0.00004528","FILE":"3626396","SITE":"AFETR","OBJECT_TYPE":"PAYLOAD","TLE_LINE1":"1 48298U 21036Y   22293.83208751  .00004528  00000-0  32256-3 0  9995","GP_ID":"215723653","CENTER_NAME":"EARTH","PERIAPSIS":"545.735","APOAPSIS":"548.611","OBJECT_ID":"2021-036Y","ECCENTRICITY":"0.00020760","REV_AT_EPOCH":"8204","TLE_LINE2":"2 48298  53.0546 229.6102 0002076  65.9957 294.1249 15.06413269 82046","NORAD_CAT_ID":"48298","MEAN_ANOMALY":"294.1249","REF_FRAME":"TEME","RCS_SIZE":"LARGE","CLASSIFICATION_TYPE":"U","RA_OF_ASC_NODE":"229.6102","SEMIMAJOR_AXIS":"6925.308","ARG_OF_PERICENTER":"65.9957","EPOCH":"2022-10-20T19:58:12.360864","COUNTRY_CODE":"US","TIME_SYSTEM":"UTC","LAUNCH_DATE":"2021-04-29","EPHEMERIS_TYPE":"0","BSTAR":"0.00032256000000","MEAN_ELEMENT_THEORY":"SGP4","PERIOD":"95.591","DECAY_DATE":null,"OBJECT_NAME":"STARLINK-2559"},{"SEMIMAJOR_AXIS":"6925.348","EPOCH":"2022-10-20T19:52:53.397120","ARG_OF_PERICENTER":"67.7749","REF_FRAME":"TEME","RCS_SIZE":"LARGE","CLASSIFICATION_TYPE":"U","RA_OF_ASC_NODE":"229.6115","MEAN_ANOMALY":"292.3419","NORAD_CAT_ID":"48299","TLE_LINE2":"2 48299  53.0553 229.6115 0001687  67.7749 292.3419 15.06400272 82044","OBJECT_ID":"2021-036Z","REV_AT_EPOCH":"8204","ECCENTRICITY":"0.00016870","BSTAR":"0.00002375400000","EPHEMERIS_TYPE":"0","OBJECT_NAME":"STARLINK-2557","DECAY_DATE":null,"PERIOD":"95.592","MEAN_ELEMENT_THEORY":"SGP4","LAUNCH_DATE":"2021-04-29","TIME_SYSTEM":"UTC","COUNTRY_CODE":"US","MEAN_MOTION_DOT":"0.00000072","INCLINATION":"53.0553","MEAN_MOTION_DDOT":"0.0000000000000","MEAN_MOTION":"15.06400272","ELEMENT_SET_NO":"999","APOAPSIS":"548.381","PERIAPSIS":"546.044","GP_ID":"215724403","CENTER_NAME":"EARTH","SITE":"AFETR","FILE":"3626396","OBJECT_TYPE":"PAYLOAD","TLE_LINE1":"1 48299U 21036Z   22293.82839580  .00000072  00000-0  23754-4 0  9999"},{"APOAPSIS":"548.403","PERIAPSIS":"546.025","TLE_LINE1":"1 48300U 21036AA  22293.09028365  .00001052  00000-0  89486-4 0  9995","OBJECT_TYPE":"PAYLOAD","SITE":"AFETR","FILE":"3625892","CENTER_NAME":"EARTH","GP_ID":"215688924","MEAN_MOTION_DDOT":"0.0000000000000","INCLINATION":"53.0531","MEAN_MOTION_DOT":"0.00001052","ELEMENT_SET_NO":"999","MEAN_MOTION":"15.06399824","LAUNCH_DATE":"2021-04-29","TIME_SYSTEM":"UTC","OBJECT_NAME":"STARLINK-2538","DECAY_DATE":null,"MEAN_ELEMENT_THEORY":"SGP4","PERIOD":"95.592","BSTAR":"0.00008948600000","EPHEMERIS_TYPE":"0","COUNTRY_CODE":"US","CLASSIFICATION_TYPE":"U","RA_OF_ASC_NODE":"242.9145","RCS_SIZE":"LARGE","REF_FRAME":"TEME","ARG_OF_PERICENTER":"61.1868","EPOCH":"2022-10-20T02:10:00.507360","SEMIMAJOR_AXIS":"6925.349","REV_AT_EPOCH":"8179","ECCENTRICITY":"0.00017170","OBJECT_ID":"2021-036AA","MEAN_ANOMALY":"298.9293","NORAD_CAT_ID":"48300","TLE_LINE2":"2 48300  53.0531 242.9145 0001717  61.1868 298.9293 15.06399824 81791"},{"MEAN_MOTION":"15.06388873","ELEMENT_SET_NO":"999","MEAN_MOTION_DOT":"0.00010626","MEAN_MOTION_DDOT":"0.0000000000000","INCLINATION":"53.0548","GP_ID":"215689174","CENTER_NAME":"EARTH","TLE_LINE1":"1 48301U 21036AB  22293.28565126  .00010626  00000-0  73141-3 0  9995","OBJECT_TYPE":"PAYLOAD","SITE":"AFETR","FILE":"3625892","APOAPSIS":"548.392","PERIAPSIS":"546.103","MEAN_ANOMALY":"281.2359","NORAD_CAT_ID":"48301","TLE_LINE2":"2 48301  53.0548 242.0602 0001653  78.8816 281.2359 15.06388873 81819","REV_AT_EPOCH":"8181","ECCENTRICITY":"0.00016530","OBJECT_ID":"2021-036AB","EPOCH":"2022-10-20T06:51:20.268864","ARG_OF_PERICENTER":"78.8816","SEMIMAJOR_AXIS":"6925.383","CLASSIFICATION_TYPE":"U","RA_OF_ASC_NODE":"242.0602","RCS_SIZE":"LARGE","REF_FRAME":"TEME","COUNTRY_CODE":"US","DECAY_DATE":null,"OBJECT_NAME":"STARLINK-2537","PERIOD":"95.593","MEAN_ELEMENT_THEORY":"SGP4","BSTAR":"0.00073141000000","EPHEMERIS_TYPE":"0","LAUNCH_DATE":"2021-04-29","TIME_SYSTEM":"UTC"},{"PERIAPSIS":"546.167","APOAPSIS":"548.282","FILE":"3625892","SITE":"AFETR","TLE_LINE1":"1 48302U 21036AC  22293.28195216  .00001196  00000-0  99210-4 0  9993","OBJECT_TYPE":"PAYLOAD","CENTER_NAME":"EARTH","GP_ID":"215689426","MEAN_MOTION_DDOT":"0.0000000000000","INCLINATION":"53.0554","MEAN_MOTION_DOT":"0.00001196","ELEMENT_SET_NO":"999","MEAN_MOTION":"15.06396551","TIME_SYSTEM":"UTC","LAUNCH_DATE":"2021-04-29","EPHEMERIS_TYPE":"0","BSTAR":"0.00009921000000","PERIOD":"95.592","MEAN_ELEMENT_THEORY":"SGP4","DECAY_DATE":null,"OBJECT_NAME":"STARLINK-2556","COUNTRY_CODE":"US","REF_FRAME":"TEME","RCS_SIZE":"LARGE","RA_OF_ASC_NODE":"242.0610","CLASSIFICATION_TYPE":"U","SEMIMAJOR_AXIS":"6925.359","ARG_OF_PERICENTER":"65.9150","EPOCH":"2022-10-20T06:46:00.666624","OBJECT_ID":"2021-036AC","ECCENTRICITY":"0.00015270","REV_AT_EPOCH":"8181","NORAD_CAT_ID":"48302","TLE_LINE2":"2 48302  53.0554 242.0610 0001527  65.9150 294.1998 15.06396551 81818","MEAN_ANOMALY":"294.1998"},{"EPHEMERIS_TYPE":"0","BSTAR":"0.00008676700000","MEAN_ELEMENT_THEORY":"SGP4","PERIOD":"95.592","OBJECT_NAME":"STARLINK-2530","DECAY_DATE":null,"TIME_SYSTEM":"UTC","LAUNCH_DATE":"2021-04-29","COUNTRY_CODE":"US","SEMIMAJOR_AXIS":"6925.358","EPOCH":"2022-10-20T20:59:11.856192","ARG_OF_PERICENTER":"66.7146","RCS_SIZE":"LARGE","REF_FRAME":"TEME","CLASSIFICATION_TYPE":"U","RA_OF_ASC_NODE":"239.4069","NORAD_CAT_ID":"48303","TLE_LINE2":"2 48303  53.0561 239.4069 0001576  66.7146 293.4009 15.06396827 81904","MEAN_ANOMALY":"293.4009","OBJECT_ID":"2021-036AD","ECCENTRICITY":"0.00015760","REV_AT_EPOCH":"8190","PERIAPSIS":"546.132","APOAPSIS":"548.315","GP_ID":"215723904","CENTER_NAME":"EARTH","FILE":"3626396","SITE":"AFETR","OBJECT_TYPE":"PAYLOAD","TLE_LINE1":"1 48303U 21036AD  22293.87444278  .00001011  00000-0  86767-4 0  9993","MEAN_MOTION_DOT":"0.00001011","MEAN_MOTION_DDOT":"0.0000000000000","INCLINATION":"53.0561","MEAN_MOTION":"15.06396827","ELEMENT_SET_NO":"999"},{"TLE_LINE1":"1 48304U 21036AE  22293.27457914  .00000759  00000-0  69832-4 0  9991","OBJECT_TYPE":"PAYLOAD","SITE":"AFETR","FILE":"3625892","GP_ID":"215688425","CENTER_NAME":"EARTH","APOAPSIS":"548.397","PERIAPSIS":"546.029","ELEMENT_SET_NO":"999","MEAN_MOTION":"15.06400243","INCLINATION":"53.0564","MEAN_MOTION_DDOT":"0.0000000000000","MEAN_MOTION_DOT":"0.00000759","COUNTRY_CODE":"US","LAUNCH_DATE":"2021-04-29","TIME_SYSTEM":"UTC","DECAY_DATE":null,"OBJECT_NAME":"STARLINK-2524","PERIOD":"95.592","MEAN_ELEMENT_THEORY":"SGP4","BSTAR":"0.00006983200000","EPHEMERIS_TYPE":"0","REV_AT_EPOCH":"8181","ECCENTRICITY":"0.00017100","OBJECT_ID":"2021-036AE","MEAN_ANOMALY":"292.5486","TLE_LINE2":"2 48304  53.0564 242.1021 0001710  67.5683 292.5486 15.06400243 81819","NORAD_CAT_ID":"48304","RA_OF_ASC_NODE":"242.1021","CLASSIFICATION_TYPE":"U","REF_FRAME":"TEME","RCS_SIZE":"LARGE","EPOCH":"2022-10-20T06:35:23.637696","ARG_OF_PERICENTER":"67.5683","SEMIMAJOR_AXIS":"6925.348"},{"EPOCH":"2022-10-20T06:28:43.820832","ARG_OF_PERICENTER":"68.6889","SEMIMAJOR_AXIS":"6925.323","RA_OF_ASC_NODE":"242.1232","CLASSIFICATION_TYPE":"U","REF_FRAME":"TEME","RCS_SIZE":"LARGE","MEAN_ANOMALY":"291.4260","TLE_LINE2":"2 48305  53.0519 242.1232 0001503  68.6889 291.4260 15.06408222 81817","NORAD_CAT_ID":"48305","REV_AT_EPOCH":"8181","ECCENTRICITY":"0.00015030","OBJECT_ID":"2021-036AF","OBJECT_NAME":"STARLINK-2519","DECAY_DATE":null,"PERIOD":"95.592","MEAN_ELEMENT_THEORY":"SGP4","EPHEMERIS_TYPE":"0","BSTAR":"0.00028524000000","LAUNCH_DATE":"2021-04-29","TIME_SYSTEM":"UTC","COUNTRY_CODE":"US","MEAN_MOTION_DOT":"0.00003971","INCLINATION":"53.0519","MEAN_MOTION_DDOT":"0.0000000000000","MEAN_MOTION":"15.06408222","ELEMENT_SET_NO":"999","PERIAPSIS":"546.147","APOAPSIS":"548.229","CENTER_NAME":"EARTH","GP_ID":"215688675","OBJECT_TYPE":"PAYLOAD","TLE_LINE1":"1 48305U 21036AF  22293.26995163  .00003971  00000-0  28524-3 0  9995","SITE":"AFETR","FILE":"3625892"},{"TLE_LINE2":"2 48306  53.0566 242.7337 0001709  73.4470 286.6706 15.06404716 81792","NORAD_CAT_ID":"48306","MEAN_ANOMALY":"286.6706","OBJECT_ID":"2021-036AG","ECCENTRICITY":"0.00017090","REV_AT_EPOCH":"8179","SEMIMAJOR_AXIS":"6925.334","ARG_OF_PERICENTER":"73.4470","EPOCH":"2022-10-20T03:13:41.600064","RCS_SIZE":"LARGE","REF_FRAME":"TEME","RA_OF_ASC_NODE":"242.7337","CLASSIFICATION_TYPE":"U","COUNTRY_CODE":"US","EPHEMERIS_TYPE":"0","BSTAR":"0.00006618400000","MEAN_ELEMENT_THEORY":"SGP4","PERIOD":"95.592","DECAY_DATE":null,"OBJECT_NAME":"STARLINK-2523","TIME_SYSTEM":"UTC","LAUNCH_DATE":"2021-04-29","MEAN_MOTION":"15.06404716","ELEMENT_SET_NO":"999","MEAN_MOTION_DOT":"0.00000704","INCLINATION":"53.0566","MEAN_MOTION_DDOT":"0.0000000000000","CENTER_NAME":"EARTH","GP_ID":"215689926","FILE":"3625892","SITE":"AFETR","OBJECT_TYPE":"PAYLOAD","TLE_LINE1":"1 48306U 21036AG  22293.13450926  .00000704  00000-0  66184-4 0  9991","APOAPSIS":"548.383","PERIAPSIS":"546.016"}];
